STARLINK-1714           
1 46562U 20070AG  23240.68234384  .00008348  00000+0  57866-3 0  9998
2 46562  53.0555 344.6392 0001188  92.8412 267.2713 15.06400553160513
STARLINK-1730           
1 46563U 20070AH  23241.32832724  .00013825  00000+0  94503-3 0  9998
2 46563  53.0542 341.7520 0001201  85.8754 274.2372 15.06406549160620
STARLINK-1733           
1 46564U 20070AJ  23240.71277741  .00008634  00000+0  59779-3 0  9991
2 46564  53.0553 344.5148 0001161  68.8450 291.2663 15.06399810160522
STARLINK-1735           
1 46565U 20070AK  23241.42047234  .00000171  00000+0  30371-4 0  9999
2 46565  53.0550 341.3382 0001205  86.9479 273.1648 15.06399923160321
STARLINK-1740           
1 46566U 20070AL  23241.60476928  .00014021  00000+0  95785-3 0  9994
2 46566  53.0549 340.5111 0001323  89.8135 270.3005 15.06416815160330
STARLINK-1741           
1 46567U 20070AM  23241.23617667  .00018447  00000+0  12538-2 0  9991
2 46567  53.0557 342.1632 0001379  85.3100 274.8046 15.06408481160604
STARLINK-1747           
1 46569U 20070AP  23241.31726580  .00007633  00000+0  53068-3 0  9996
2 46569  53.0562 341.7980 0001164  84.1092 276.0029 15.06406402160316
STARLINK-1748           
1 46570U 20070AQ  23241.69994017  .00010794  00000+0  42952-3 0  9993
2 46570  53.0312 307.8052 0000515 239.7684 120.3263 15.25790374161135
STARLINK-1531           
1 46572U 20070AS  23241.62040812  .00023001  00000+0  15567-2 0  9999
2 46572  53.0560   0.4249 0001224  83.1307 276.9821 15.06431692160396
STARLINK-1660           
1 46574U 20070AU  23241.31865279  .00019092  00000+0  12966-2 0  9994
2 46574  53.0547 346.7937 0001237  84.0664 276.0466 15.06416142160549
STARLINK-1675           
1 46575U 20070AV  23241.63977657  .00015435  00000+0  10519-2 0  9993
2 46575  53.0551 320.3504 0001241  82.2282 277.8848 15.06432437160946
STARLINK-1677           
1 46576U 20070AW  23241.70935030  .00021855  00000+0  14800-2 0  9991
2 46576  53.0561 345.0392 0001400  84.6422 275.4727 15.06439707160606
STARLINK-1682           
1 46577U 20070AX  23241.60615156  .00017079  00000+0  11617-2 0  9991
2 46577  53.0552 345.5028 0001212  71.9938 288.1183 15.06430935160588
STARLINK-1683           
1 46578U 20070AY  23241.58725673  .00006500  00000+0  45458-3 0  9993
2 46578  53.0555 330.6340 0001080  94.0132 266.0981 15.06419639160498
STARLINK-1705           
1 46579U 20070AZ  23241.59141160  .00018161  00000+0  12342-2 0  9999
2 46579  53.0560 345.5691 0001598  93.9382 266.1790 15.06423212160567
STARLINK-1708           
1 46580U 20070BA  23240.70679228  .00024947  00000+0  16882-2 0  9996
2 46580  53.0543 349.5437 0001334  74.4094 285.7042 15.06390586160456
STARLINK-1712           
1 46581U 20070BB  23241.33570400  .00018806  00000+0  12773-2 0  9991
2 46581  53.0546 341.7159 0001174  80.3183 279.7939 15.06421334160614
STARLINK-1728           
1 46582U 20070BC  23241.38729911  .00015422  00000+0  10514-2 0  9992
2 46582  53.0560 341.4838 0001261  73.7791 286.3337 15.06420763160622
STARLINK-1729           
1 46583U 20070BD  23241.03898439  .00014488  00000+0  98929-3 0  9995
2 46583  53.0554   3.0482 0001272  54.6714 305.4394 15.06407965160307
STARLINK-1732           
1 46584U 20070BE  23240.99290387  .00013753  00000+0  94033-3 0  9994
2 46584  53.0555 343.2575 0001336  93.3760 266.7382 15.06400531160255
STARLINK-1736           
1 46585U 20070BF  23241.27577898  .00010753  00000+0  73963-3 0  9998
2 46585  53.0549 341.9759 0001179  90.0340 270.0784 15.06402339160309
STARLINK-1737           
1 46586U 20070BG  23241.00027469  .00000543  00000+0  55343-4 0  9993
2 46586  53.0553 343.2230 0001100  96.1814 263.9300 15.06402550160244
STARLINK-1746           
1 46588U 20070BJ  23240.58376420  .00003728  00000+0  26901-3 0  9996
2 46588  53.0560 345.0921 0001204  69.8444 290.2674 15.06400810160505
STARLINK-1749           
1 46589U 20070BK  23241.70428076  .00013887  00000+0  94862-3 0  9995
2 46589  53.0557 340.0627 0001202  79.1476 280.9648 15.06426943160677
STARLINK-1755           
1 46591U 20070BM  23240.56534512  .00021513  00000+0  14591-2 0  9999
2 46591  53.0554 345.1727 0001189  70.0238 290.0879 15.06390312159557
STARLINK-1715           
1 46671U 20073B   23241.25741165  .00012979  00000+0  88872-3 0  9992
2 46671  53.0537  72.3081 0001414  92.2802 267.8349 15.06395890158350
STARLINK-1716           
1 46672U 20073C   23240.94268513  .00004888  00000+0  34688-3 0  9995
2 46672  53.0555  68.4809 0000994  88.3539 271.7563 15.06390534158385
STARLINK-1717           
1 46673U 20073D   23240.99108167  .00005694  00000+0  40088-3 0  9996
2 46673  53.0537  83.3888 0001437  85.3495 274.7658 15.06396489158170
STARLINK-1718           
1 46674U 20073E   23241.69830663  .00014478  00000+0  98853-3 0  9991
2 46674  53.0546  65.0913 0001376  91.3428 268.7718 15.06411622158494
STARLINK-1720           
1 46675U 20073F   23241.23019450  .00000775  00000+0  70900-4 0  9994
2 46675  53.0544  67.1897 0001285  94.0068 266.1068 15.06394580158422
STARLINK-1766           
1 46677U 20073H   23241.69092961  .00005993  00000+0  42077-3 0  9994
2 46677  53.0554  65.1236 0001588  87.4383 272.6787 15.06407333158490
STARLINK-1773           
1 46679U 20073K   23241.69646314  .00016983  00000+0  11559-2 0  9994
2 46679  53.0543  45.0958 0001482  89.0168 271.0990 15.06411461158788
STARLINK-1774           
1 46680U 20073L   23240.96895183  .00007169  00000+0  49975-3 0  9995
2 46680  53.0539  83.3650 0001161  73.7792 286.3324 15.06392175158179
STARLINK-1775           
1 46681U 20073M   23241.00580864  .00004019  00000+0  28857-3 0  9996
2 46681  53.0541  83.1965 0001423  88.9453 271.1699 15.06393332158176
STARLINK-1776           
1 46682U 20073N   23241.69508245  .00015438  00000+0  10527-2 0  9996
2 46682  53.0542  80.1030 0001492  86.7424 273.3736 15.06411579158392
STARLINK-1780           
1 46684U 20073Q   23240.82105142  .00005870  00000+0  41263-3 0  9992
2 46684  53.0540  69.0271 0001340  81.7758 278.3383 15.06401241157883
STARLINK-1781           
1 46685U 20073R   23241.73836490  .00015044  00000+0  10263-2 0  9990
2 46685  53.0536  79.8947 0001290  91.0181 269.0956 15.06414260158289
STARLINK-1783           
1 46686U 20073S   23240.98643084  .00004066  00000+0  29173-3 0  9995
2 46686  53.0540  83.2360 0001350  85.1771 274.9372 15.06396596158175
STARLINK-1784           
1 46687U 20073T   23240.91135981  .00007728  00000+0  53718-3 0  9991
2 46687  53.0545  48.6241 0001364  89.3108 270.8037 15.06398554158651
STARLINK-1788           
1 46689U 20073V   23241.00212326 -.00000799  00000+0 -34781-4 0  9996
2 46689  53.0550  83.2160 0001506  97.6088 262.5073 15.06395546158174
STARLINK-1789           
1 46690U 20073W   23241.73239633  .00016989  00000+0  11562-2 0  9994
2 46690  53.0538  54.9370 0001343  86.4979 273.6163 15.06414914158639
STARLINK-1790           
1 46691U 20073X   23241.73147638  .00011545  00000+0  79227-3 0  9994
2 46691  53.0534  64.9385 0001402  86.5031 273.6118 15.06419082158494
STARLINK-1791           
1 46692U 20073Y   23240.98737787  .00004132  00000+0  29617-3 0  9993
2 46692  53.0547  83.2815 0001331  87.7955 272.3187 15.06397988158177
STARLINK-1792           
1 46693U 20073Z   23241.73515733 -.00000559  00000+0 -18657-4 0  9997
2 46693  53.0546  64.9226 0001300  91.6425 268.4712 15.06394557158484
STARLINK-1793           
1 46694U 20073AA  23241.42738368  .00002417  00000+0  18111-3 0  9992
2 46694  53.0548  46.3031 0001393  84.6587 275.4561 15.06401692158746
STARLINK-1795           
1 46696U 20073AC  23241.71120049  .00011408  00000+0  78314-3 0  9998
2 46696  53.0552  45.0326 0001471  84.0834 276.0322 15.06416867158777
STARLINK-1797           
1 46698U 20073AE  23241.70104569  .00014360  00000+0  98073-3 0  9992
2 46698  53.0545  65.0695 0001486  86.6398 273.4761 15.06407990158473
STARLINK-1799           
1 46699U 20073AF  23241.04220793  .00005185  00000+0  36680-3 0  9999
2 46699  53.0537  68.0366 0001519  88.0796 272.0367 15.06390532158355
STARLINK-1800           
1 46700U 20073AG  23240.98000600  .00002845  00000+0  20984-3 0  9997
2 46700  53.0541  83.3132 0001345  85.2140 274.9003 15.06388904158171
STARLINK-1801           
1 46701U 20073AH  23241.67618544  .00005339  00000+0  37699-3 0  9999
2 46701  53.0561  65.1870 0001361  84.1901 275.9243 15.06407964158492
STARLINK-1802           
1 46702U 20073AJ  23241.62274286  .00016950  00000+0  11538-2 0  9990
2 46702  53.0547  45.4270 0001550  87.4566 272.6600 15.06409193158773
STARLINK-1803           
1 46703U 20073AK  23240.79157076  .00004782  00000+0  33971-3 0  9991
2 46703  53.0547  69.1559 0001849  84.4811 275.6389 15.06398680157873
STARLINK-1804           
1 46704U 20073AL  23241.63380422  .00016941  00000+0  11532-2 0  9997
2 46704  53.0545  45.3791 0001492  92.2717 267.8443 15.06408418158777
STARLINK-1805           
1 46705U 20073AM  23240.85099667  .00003222  00000+0  23511-3 0  9998
2 46705  53.0544  83.8930 0001326  92.4436 267.6705 15.06397402158156
STARLINK-1807           
1 46706U 20073AN  23241.68724764  .00015302  00000+0  10438-2 0  9999
2 46706  53.0547  65.1403 0001451  85.8129 274.3025 15.06405323158491
STARLINK-1808           
1 46707U 20073AP  23241.67802549  .00001954  00000+0  15003-3 0  9999
2 46707  53.0550  45.1796 0001321  88.9042 271.2099 15.06407826158782
STARLINK-1810           
1 46709U 20073AR  23241.28965007  .00014468  00000+0  98831-3 0  9991
2 46709  53.0540  82.0502 0001297  85.7130 274.4007 15.06395825158210
STARLINK-1811           
1 46710U 20073AS  23241.69502831  .00071009  00000+0  43382-3 0  9995
2 46710  53.0509  70.7452 0001435  75.3710 284.7468 15.76747414158417
STARLINK-1813           
1 46711U 20073AT  23240.81736462  .00001593  00000+0  12579-3 0  9993
2 46711  53.0541  69.0433 0001333  91.4947 268.6195 15.06398360157885
